{
  "type": "FeatureCollection",
  "features": [
    {
      "type": "Feature",
      "properties": {
        "norad_id": 36828,
        "name": "BEIDOU-2 IGSO-1 (C06)",
        "group": "beidou",
        "lat": 7.1653951137956025,
        "lon": 169.93284070624492,
        "alt_km": 35976.37017862328,
        "timestamp": "2025-12-02T23:34:15.781372+00:00",
        "meta_object_name": "BEIDOU-2 IGSO-1 (C06)",
        "meta_object_id": "2010-036A",
        "meta_epoch": "2025-12-01T10:54:26.819712",
        "meta_mean_motion": 1.00279202,
        "meta_eccentricity": 0.00512823,
        "meta_inclination": 54.2832,
        "meta_ra_of_asc_node": 164.751,
        "meta_arg_of_pericenter": 215.7518,
        "meta_mean_anomaly": 321.3962,
        "meta_ephemeris_type": 0,
        "meta_classification_type": "U",
        "meta_norad_cat_id": 36828,
        "meta_element_set_no": 999,
        "meta_rev_at_epoch": 5611,
        "meta_bstar": 0,
        "meta_mean_motion_dot": -1.7e-07,
        "meta_mean_motion_ddot": 0,
        "tle_line1": "1 36828U 10036A   25335.45447708 -.00000017  00000+0  00000+0 0  9991",
        "tle_line2": "2 36828  54.2832 164.7510 0051282 215.7518 321.3962  1.00279202 56116"
      },
      "geometry": {
        "type": "Point",
        "coordinates": [
          169.93284070624492,
          7.1653951137956025
        ]
      }
    },
    {
      "type": "Feature",
      "properties": {
        "norad_id": 37210,
        "name": "BEIDOU-2 G4 (C04)",
        "group": "beidou",
        "lat": 1.2758705548275793,
        "lon": -134.34085393575307,
        "alt_km": 35747.11533769087,
        "timestamp": "2025-12-02T23:34:15.781396+00:00",
        "meta_object_name": "BEIDOU-2 G4 (C04)",
        "meta_object_id": "2010-057A",
        "meta_epoch": "2025-12-02T10:49:38.522784",
        "meta_mean_motion": 1.00271394,
        "meta_eccentricity": 0.0010858,
        "meta_inclination": 3.157,
        "meta_ra_of_asc_node": 69.9629,
        "meta_arg_of_pericenter": 188.0022,
        "meta_mean_anomaly": 136.0718,
        "meta_ephemeris_type": 0,
        "meta_classification_type": "U",
        "meta_norad_cat_id": 37210,
        "meta_element_set_no": 999,
        "meta_rev_at_epoch": 5531,
        "meta_bstar": 0,
        "meta_mean_motion_dot": -9.2e-07,
        "meta_mean_motion_ddot": 0,
        "tle_line1": "1 37210U 10057A   25336.45114031 -.00000092  00000+0  00000+0 0  9994",
        "tle_line2": "2 37210   3.1570  69.9629 0010858 188.0022 136.0718  1.00271394 55312"
      },
      "geometry": {
        "type": "Point",
        "coordinates": [
          -134.34085393575307,
          1.2758705548275793
        ]
      }
    },
    {
      "type": "Feature",
      "properties": {
        "norad_id": 37256,
        "name": "BEIDOU-2 IGSO-2 (C07)",
        "group": "beidou",
        "lat": -46.77714606379957,
        "lon": 167.96254390056268,
        "alt_km": 35633.67105910569,
        "timestamp": "2025-12-02T23:34:15.781412+00:00",
        "meta_object_name": "BEIDOU-2 IGSO-2 (C07)",
        "meta_object_id": "2010-068A",
        "meta_epoch": "2025-11-30T14:15:56.539296",
        "meta_mean_motion": 1.00290004,
        "meta_eccentricity": 0.0049401,
        "meta_inclination": 47.9109,
        "meta_ra_of_asc_node": 274.301,
        "meta_arg_of_pericenter": 216.3834,
        "meta_mean_anomaly": 260.0417,
        "meta_ephemeris_type": 0,
        "meta_classification_type": "U",
        "meta_norad_cat_id": 37256,
        "meta_element_set_no": 999,
        "meta_rev_at_epoch": 5480,
        "meta_bstar": 0,
        "meta_mean_motion_dot": -2.25e-06,
        "meta_mean_motion_ddot": 0,
        "tle_line1": "1 37256U 10068A   25334.59440439 -.00000225  00000+0  00000+0 0  9991",
        "tle_line2": "2 37256  47.9109 274.3010 0049401 216.3834 260.0417  1.00290004 54800"
      },
      "geometry": {
        "type": "Point",
        "coordinates": [
          167.96254390056268,
          -46.77714606379957
        ]
      }
    },
    {
      "type": "Feature",
      "properties": {
        "norad_id": 37384,
        "name": "BEIDOU-2 IGSO-3 (C08)",
        "group": "beidou",
        "lat": 41.88522760540274,
        "lon": -166.21956839284633,
        "alt_km": 35695.24216385339,
        "timestamp": "2025-12-02T23:34:15.781425+00:00",
        "meta_object_name": "BEIDOU-2 IGSO-3 (C08)",
        "meta_object_id": "2011-013A",
        "meta_epoch": "2025-11-29T21:04:05.094336",
        "meta_mean_motion": 1.00273417,
        "meta_eccentricity": 0.00356655,
        "meta_inclination": 62.1255,
        "meta_ra_of_asc_node": 42.0418,
        "meta_arg_of_pericenter": 186.0158,
        "meta_mean_anomaly": 264.7363,
        "meta_ephemeris_type": 0,
        "meta_classification_type": "U",
        "meta_norad_cat_id": 37384,
        "meta_element_set_no": 999,
        "meta_rev_at_epoch": 5366,
        "meta_bstar": 0,
        "meta_mean_motion_dot": -1.94e-06,
        "meta_mean_motion_ddot": 0,
        "tle_line1": "1 37384U 11013A   25333.87783674 -.00000194  00000+0  00000+0 0  9990",
        "tle_line2": "2 37384  62.1255  42.0418 0035665 186.0158 264.7363  1.00273417 53667"
      },
      "geometry": {
        "type": "Point",
        "coordinates": [
          -166.21956839284633,
          41.88522760540274
        ]
      }
    },
    {
      "type": "Feature",
      "properties": {
        "norad_id": 37763,
        "name": "BEIDOU-2 IGSO-4 (C09)",
        "group": "beidou",
        "lat": -5.188620410875931,
        "lon": 163.72485130406224,
        "alt_km": 36122.575103926276,
        "timestamp": "2025-12-02T23:34:15.781438+00:00",
        "meta_object_name": "BEIDOU-2 IGSO-4 (C09)",
        "meta_object_id": "2011-038A",
        "meta_epoch": "2025-11-28T12:37:32.473920",
        "meta_mean_motion": 1.00284857,
        "meta_eccentricity": 0.01486323,
        "meta_inclination": 54.5801,
        "meta_ra_of_asc_node": 167.4746,
        "meta_arg_of_pericenter": 230.1967,
        "meta_mean_anomaly": 313.2933,
        "meta_ephemeris_type": 0,
        "meta_classification_type": "U",
        "meta_norad_cat_id": 37763,
        "meta_element_set_no": 999,
        "meta_rev_at_epoch": 5263,
        "meta_bstar": 0,
        "meta_mean_motion_dot": 8.5e-07,
        "meta_mean_motion_ddot": 0,
        "tle_line1": "1 37763U 11038A   25332.52607030  .00000085  00000+0  00000+0 0  9998",
        "tle_line2": "2 37763  54.5801 167.4746 0148632 230.1967 313.2933  1.00284857 52633"
      },
      "geometry": {
        "type": "Point",
        "coordinates": [
          163.72485130406224,
          -5.188620410875931
        ]
      }
    },
    {
      "type": "Feature",
      "properties": {
        "norad_id": 37948,
        "name": "BEIDOU-2 IGSO-5 (C10)",
        "group": "beidou",
        "lat": -42.210998878040705,
        "lon": 148.47726349927274,
        "alt_km": 35353.956345343126,
        "timestamp": "2025-12-02T23:34:15.781451+00:00",
        "meta_object_name": "BEIDOU-2 IGSO-5 (C10)",
        "meta_object_id": "2011-073A",
        "meta_epoch": "2025-12-01T19:23:12.254208",
        "meta_mean_motion": 1.00292861,
        "meta_eccentricity": 0.01108827,
        "meta_inclination": 48.0424,
        "meta_ra_of_asc_node": 273.9939,
        "meta_arg_of_pericenter": 222.2372,
        "meta_mean_anomaly": 317.7789,
        "meta_ephemeris_type": 0,
        "meta_classification_type": "U",
        "meta_norad_cat_id": 37948,
        "meta_element_set_no": 999,
        "meta_rev_at_epoch": 5115,
        "meta_bstar": 0,
        "meta_mean_motion_dot": -1.75e-06,
        "meta_mean_motion_ddot": 0,
        "tle_line1": "1 37948U 11073A   25335.80778072 -.00000175  00000+0  00000+0 0  9992",
        "tle_line2": "2 37948  48.0424 273.9939 0110882 222.2372 317.7789  1.00292861 51150"
      },
      "geometry": {
        "type": "Point",
        "coordinates": [
          148.47726349927274,
          -42.210998878040705
        ]
      }
    },
    {
      "type": "Feature",
      "properties": {
        "norad_id": 38091,
        "name": "BEIDOU-2 G5 (C05)",
        "group": "beidou",
        "lat": 2.486985630940643,
        "lon": 124.26202333222058,
        "alt_km": 35836.57530349689,
        "timestamp": "2025-12-02T23:34:15.781463+00:00",
        "meta_object_name": "BEIDOU-2 G5 (C05)",
        "meta_object_id": "2012-008A",
        "meta_epoch": "2025-12-02T05:30:12.619872",
        "meta_mean_motion": 1.00271982,
        "meta_eccentricity": 0.0012222,
        "meta_inclination": 3.0809,
        "meta_ra_of_asc_node": 70.7374,
        "meta_arg_of_pericenter": 225.4124,
        "meta_mean_anomaly": 276.4387,
        "meta_ephemeris_type": 0,
        "meta_classification_type": "U",
        "meta_norad_cat_id": 38091,
        "meta_element_set_no": 999,
        "meta_rev_at_epoch": 5039,
        "meta_bstar": 0,
        "meta_mean_motion_dot": 7.7e-07,
        "meta_mean_motion_ddot": 0,
        "tle_line1": "1 38091U 12008A   25336.22931273  .00000077  00000+0  00000+0 0  9992",
        "tle_line2": "2 38091   3.0809  70.7374 0012222 225.4124 276.4387  1.00271982 50394"
      },
      "geometry": {
        "type": "Point",
        "coordinates": [
          124.26202333222058,
          2.486985630940643
        ]
      }
    }
  ]
}